[
    {
        "Altitude(m)": 607911.0026913501,
        "Argument of Periapsis(deg)": 0.0,
        "Eccentricity": 0.0,
        "Inclination(deg)": 60.0,
        "Latitude(deg)": -14.292908444504008,
        "Longitude(deg)": 173.44262601296472,
        "Mean Anomaly(deg)": 196.36359999999996,
        "RAAN(deg)": 85.00000000000001,
        "Satellite Name": "Test1 386",
        "Satellite Number": 386,
        "Semi-Major Axis(m)": 6980739.136638005,
        "Time(s)": 0
    },
    {
        "Altitude(m)": 608060.236148526,
        "Argument of Periapsis(deg)": 0.00010418945913296404,
        "Eccentricity": 0.0,
        "Inclination(deg)": 60.0,
        "Latitude(deg)": -14.826570278997318,
        "Longitude(deg)": 173.7312345668194,
        "Mean Anomaly(deg)": 196.98370614546184,
        "RAAN(deg)": 84.99957995086027,
        "Satellite Name": "Test1 386",
        "Satellite Number": 386,
        "Semi-Major Axis(m)": 6980739.136638005,
        "Time(s)": 10
    },
    {
        "Altitude(m)": 608211.8998200941,
        "Argument of Periapsis(deg)": 0.0002083789182659281,
        "Eccentricity": 0.0,
        "Inclination(deg)": 60.0,
        "Latitude(deg)": -15.359715897472874,
        "Longitude(deg)": 174.02145190449085,
        "Mean Anomaly(deg)": 197.60381229092366,
        "RAAN(deg)": 84.99915990172053,
        "Satellite Name": "Test1 386",
        "Satellite Number": 386,
        "Semi-Major Axis(m)": 6980739.136638005,
        "Time(s)": 20
    },
    {
        "Altitude(m)": 608365.9456247041,
        "Argument of Periapsis(deg)": 0.00031256837739889213,
        "Eccentricity": 0.0,
        "Inclination(deg)": 60.0,
        "Latitude(deg)": -15.89232409088684,
        "Longitude(deg)": 174.31334549332783,
        "Mean Anomaly(deg)": 198.22391843638547,
        "RAAN(deg)": 84.99873985258077,
        "Satellite Name": "Test1 386",
        "Satellite Number": 386,
        "Semi-Major Axis(m)": 6980739.136638005,
        "Time(s)": 30
    },
    {
        "Altitude(m)": 608522.3242834557,
        "Argument of Periapsis(deg)": 0.0004167578365318562,
        "Eccentricity": 0.0,
        "Inclination(deg)": 60.0,
        "Latitude(deg)": -16.42437331793872,
        "Longitude(deg)": 174.60698431968834,
        "Mean Anomaly(deg)": 198.8440245818473,
        "RAAN(deg)": 84.99831980344103,
        "Satellite Name": "Test1 386",
        "Satellite Number": 386,
        "Semi-Major Axis(m)": 6980739.136638005,
        "Time(s)": 40
    },
    {
        "Altitude(m)": 608680.9853412173,
        "Argument of Periapsis(deg)": 0.0005209472956648203,
        "Eccentricity": 0.0,
        "Inclination(deg)": 60.0,
        "Latitude(deg)": -16.9558416890486,
        "Longitude(deg)": 174.9024379242682,
        "Mean Anomaly(deg)": 199.46413072730914,
        "RAAN(deg)": 84.99789975430129,
        "Satellite Name": "Test1 386",
        "Satellite Number": 386,
        "Semi-Major Axis(m)": 6980739.136638005,
        "Time(s)": 50
    },
    {
        "Altitude(m)": 608841.877188493,
        "Argument of Periapsis(deg)": 0.0006251367547977843,
        "Eccentricity": 0.0,
        "Inclination(deg)": 60.0,
        "Latitude(deg)": -17.48670694985709,
        "Longitude(deg)": 175.19977695114173,
        "Mean Anomaly(deg)": 200.08423687277096,
        "RAAN(deg)": 84.99747970516155,
        "Satellite Name": "Test1 386",
        "Satellite Number": 386,
        "Semi-Major Axis(m)": 6980739.136638005,
        "Time(s)": 60
    },
    {
        "Altitude(m)": 609004.947083845,
        "Argument of Periapsis(deg)": 0.0007293262139307483,
        "Eccentricity": 0.0,
        "Inclination(deg)": 60.0,
        "Latitude(deg)": -18.016946464221906,
        "Longitude(deg)": 175.4990736976647,
        "Mean Anomaly(deg)": 200.7043430182328,
        "RAAN(deg)": 84.9970596560218,
        "Satellite Name": "Test1 386",
        "Satellite Number": 386,
        "Semi-Major Axis(m)": 6980739.136638005,
        "Time(s)": 70
    },
    {
        "Altitude(m)": 609170.1411768388,
        "Argument of Periapsis(deg)": 0.0008335156730637124,
        "Eccentricity": 0.0,
        "Inclination(deg)": 60.0,
        "Latitude(deg)": -18.546537196683662,
        "Longitude(deg)": 175.80040115238998,
        "Mean Anomaly(deg)": 201.3244491636946,
        "RAAN(deg)": 84.99663960688207,
        "Satellite Name": "Test1 386",
        "Satellite Number": 386,
        "Semi-Major Axis(m)": 6980739.136638005,
        "Time(s)": 80
    },
    {
        "Altitude(m)": 609337.4045315542,
        "Argument of Periapsis(deg)": 0.0009377051321966765,
        "Eccentricity": 0.0,
        "Inclination(deg)": 60.0,
        "Latitude(deg)": -19.075455694383137,
        "Longitude(deg)": 176.10383354676358,
        "Mean Anomaly(deg)": 201.94455530915644,
        "RAAN(deg)": 84.99621955774232,
        "Satellite Name": "Test1 386",
        "Satellite Number": 386,
        "Semi-Major Axis(m)": 6980739.136638005,
        "Time(s)": 90
    },
    {
        "Altitude(m)": 609506.6811505593,
        "Argument of Periapsis(deg)": 0.0010418945913296407,
        "Eccentricity": 0.0,
        "Inclination(deg)": 60.0,
        "Latitude(deg)": -19.60367806840157,
        "Longitude(deg)": 176.40944690775078,
        "Mean Anomaly(deg)": 202.5646614546183,
        "RAAN(deg)": 84.99579950860257,
        "Satellite Name": "Test1 386",
        "Satellite Number": 386,
        "Semi-Major Axis(m)": 6980739.136638005,
        "Time(s)": 100
    },
    {
        "Altitude(m)": 609677.9139994527,
        "Argument of Periapsis(deg)": 0.0011460840504626045,
        "Eccentricity": 0.0,
        "Inclination(deg)": 60.0,
        "Latitude(deg)": -20.131179974494664,
        "Longitude(deg)": 176.7173180985339,
        "Mean Anomaly(deg)": 203.18476760008014,
        "RAAN(deg)": 84.99537945946282,
        "Satellite Name": "Test1 386",
        "Satellite Number": 386,
        "Semi-Major Axis(m)": 6980739.136638005,
        "Time(s)": 110
    },
    {
        "Altitude(m)": 609851.045031829,
        "Argument of Periapsis(deg)": 0.0012502735095955685,
        "Eccentricity": 0.0,
        "Inclination(deg)": 60.0,
        "Latitude(deg)": -20.657936593200613,
        "Longitude(deg)": 177.02752537304985,
        "Mean Anomaly(deg)": 203.8048737455419,
        "RAAN(deg)": 84.99495941032309,
        "Satellite Name": "Test1 386",
        "Satellite Number": 386,
        "Semi-Major Axis(m)": 6980739.136638005,
        "Time(s)": 120
    },
    {
        "Altitude(m)": 610026.0152147753,
        "Argument of Periapsis(deg)": 0.0013544629687285324,
        "Eccentricity": 0.0,
        "Inclination(deg)": 60.0,
        "Latitude(deg)": -21.183922609290086,
        "Longitude(deg)": 177.34014893150425,
        "Mean Anomaly(deg)": 204.42497989100374,
        "RAAN(deg)": 84.99453936118334,
        "Satellite Name": "Test1 386",
        "Satellite Number": 386,
        "Semi-Major Axis(m)": 6980739.136638005,
        "Time(s)": 130
    },
    {
        "Altitude(m)": 610202.7645548125,
        "Argument of Periapsis(deg)": 0.0014586524278614966,
        "Eccentricity": 0.0,
        "Inclination(deg)": 60.0,
        "Latitude(deg)": -21.70911219052816,
        "Longitude(deg)": 177.65526996400448,
        "Mean Anomaly(deg)": 205.04508603646565,
        "RAAN(deg)": 84.99411931204361,
        "Satellite Name": "Test1 386",
        "Satellite Number": 386,
        "Semi-Major Axis(m)": 6980739.136638005,
        "Time(s)": 140
    },
    {
        "Altitude(m)": 610381.2321242662,
        "Argument of Periapsis(deg)": 0.0015628418869944607,
        "Eccentricity": 0.0,
        "Inclination(deg)": 60.0,
        "Latitude(deg)": -22.233478965724498,
        "Longitude(deg)": 177.97297120806607,
        "Mean Anomaly(deg)": 205.66519218192744,
        "RAAN(deg)": 84.99369926290386,
        "Satellite Name": "Test1 386",
        "Satellite Number": 386,
        "Semi-Major Axis(m)": 6980739.136638005,
        "Time(s)": 150
    },
    {
        "Altitude(m)": 610561.3560881092,
        "Argument of Periapsis(deg)": 0.0016670313461274247,
        "Eccentricity": 0.0,
        "Inclination(deg)": 60.0,
        "Latitude(deg)": -22.756996002038644,
        "Longitude(deg)": 178.29333750712462,
        "Mean Anomaly(deg)": 206.28529832738928,
        "RAAN(deg)": 84.99327921376413,
        "Satellite Name": "Test1 386",
        "Satellite Number": 386,
        "Semi-Major Axis(m)": 6980739.136638005,
        "Time(s)": 160
    },
    {
        "Altitude(m)": 610743.0737312055,
        "Argument of Periapsis(deg)": 0.0017712208052603888,
        "Eccentricity": 0.0,
        "Inclination(deg)": 60.0,
        "Latitude(deg)": -23.279635781506975,
        "Longitude(deg)": 178.61645485718364,
        "Mean Anomaly(deg)": 206.9054044728511,
        "RAAN(deg)": 84.99285916462438,
        "Satellite Name": "Test1 386",
        "Satellite Number": 386,
        "Semi-Major Axis(m)": 6980739.136638005,
        "Time(s)": 170
    },
    {
        "Altitude(m)": 610926.3214859751,
        "Argument of Periapsis(deg)": 0.001875410264393353,
        "Eccentricity": 0.0,
        "Inclination(deg)": 60.0,
        "Latitude(deg)": -23.801370176765708,
        "Longitude(deg)": 178.94241096734265,
        "Mean Anomaly(deg)": 207.52551061831295,
        "RAAN(deg)": 84.99243911548464,
        "Satellite Name": "Test1 386",
        "Satellite Number": 386,
        "Semi-Major Axis(m)": 6980739.136638005,
        "Time(s)": 180
    },
    {
        "Altitude(m)": 611111.0349604348,
        "Argument of Periapsis(deg)": 0.0019795997235263173,
        "Eccentricity": 0.0,
        "Inclination(deg)": 60.0,
        "Latitude(deg)": -24.322170425933468,
        "Longitude(deg)": 179.27129582132616,
        "Mean Anomaly(deg)": 208.14561676377474,
        "RAAN(deg)": 84.9920190663449,
        "Satellite Name": "Test1 386",
        "Satellite Number": 386,
        "Semi-Major Axis(m)": 6980739.136638005,
        "Time(s)": 190
    }
]